[{"OBJECT_NAME":"STARLINK-30101","OBJECT_ID":"2023-056R","EPOCH":"2026-03-09T22:00:01.999584","MEAN_MOTION":15.26737372,"ECCENTRICITY":0.00016166,"INCLINATION":42.9991,"RA_OF_ASC_NODE":207.1773,"ARG_OF_PERICENTER":276.291,"MEAN_ANOMALY":310.8076,"EPHEMERIS_TYPE":0,"CLASSIFICATION_TYPE":"U","NORAD_CAT_ID":56301,"ELEMENT_SET_NO":999,"REV_AT_EPOCH":578,"BSTAR":0.0014706882,"MEAN_MOTION_DOT":0.00039398,"MEAN_MOTION_DDOT":0},{"OBJECT_NAME":"KUIPER-00209","OBJECT_ID":"2026-030N","EPOCH":"2026-03-09T14:49:43.575744","MEAN_MOTION":15.3016195,"ECCENTRICITY":0.0012191,"INCLINATION":51.8838,"RA_OF_ASC_NODE":220.0775,"ARG_OF_PERICENTER":59.1967,"MEAN_ANOMALY":301.0215,"EPHEMERIS_TYPE":0,"CLASSIFICATION_TYPE":"U","NORAD_CAT_ID":67776,"ELEMENT_SET_NO":999,"REV_AT_EPOCH":507,"BSTAR":0.0011963,"MEAN_MOTION_DOT":0.00035298,"MEAN_MOTION_DDOT":0}]
